CTC2_L_00061016-03
1 58176U 23735AS  26070.40842593  .00000000  00000+0  00000-0 0  9996
2 58176  50.0000 180.0000 0000000   0.0000   0.0000 15.38683946    17
CTC2_L_00061016-04
1 58177U 25119XD  26070.40842593  .00000000  00000+0  00000-0 0  9995
2 58177  50.0000 180.0000 0000000   0.0000  90.0000 15.38683946    17
CTC2_L_00061017-01
1 58178U 22558SW  26070.40842593  .00000000  00000+0  00000-0 0  9990
2 58178  50.0000 192.0000 0000000   0.0000 192.0000 15.38683946    14
CTC2_L_00061017-02
1 58179U 24381WQ  26070.40842593  .00000000  00000+0  00000-0 0  9997
2 58179  50.0000 192.0000 0000000   0.0000 282.0000 15.38683946    15
CTC2_L_00061017-03
1 58180U 23264PX  26070.40842593  .00000000  00000+0  00000-0 0  9998
2 58180  50.0000 192.0000 0000000   0.0000  12.0000 15.38683946    18
CTC2_L_00061017-04
1 58181U 22297NE  26070.40842593  .00000000  00000+0  00000-0 0  9994
2 58181  50.0000 192.0000 0000000   0.0000 102.0000 15.38683946    19
CTC2_L_00061018-01
1 58182U 26847JH  26070.40842593  .00000000  00000+0  00000-0 0  9990
2 58182  50.0000 204.0000 0000000   0.0000 204.0000 15.38683946    17
CTC2_L_00061018-02
1 58183U 25369DK  26070.40842593  .00000000  00000+0  00000-0 0  9999
2 58183  50.0000 204.0000 0000000   0.0000 294.0000 15.38683946    17
CTC2_L_00061018-03
1 58184U 26670MX  26070.40842593  .00000000  00000+0  00000-0 0  9996
2 58184  50.0000 204.0000 0000000   0.0000  24.0000 15.38683946    19
CTC2_L_00061018-04
1 58185U 22287YG  26070.40842593  .00000000  00000+0  00000-0 0  9997
2 58185  50.0000 204.0000 0000000   0.0000 114.0000 15.38683946    10
CTC2_L_00061019-01
1 58186U 22077ZO  26070.40842593  .00000000  00000+0  00000-0 0  9995
2 58186  50.0000 216.0000 0000000   0.0000 216.0000 15.38683946    17
CTC2_L_00061019-02
1 58187U 24663JJ  26070.40842593  .00000000  00000+0  00000-0 0  9999
2 58187  50.0000 216.0000 0000000   0.0000 306.0000 15.38683946    18
CTC2_L_00061019-03
1 58188U 22581TM  26070.40842593  .00000000  00000+0  00000-0 0  9997
2 58188  50.0000 216.0000 0000000   0.0000  36.0000 15.38683946    19
CTC2_L_00061019-04
1 58189U 24499WT  26070.40842593  .00000000  00000+0  00000-0 0  9998
2 58189  50.0000 216.0000 0000000   0.0000 126.0000 15.38683946    10
CTC2_L_00061020-01
1 58190U 26794GZ  26070.40842593  .00000000  00000+0  00000-0 0  9990
2 58190  50.0000 228.0000 0000000   0.0000 228.0000 15.38683946    18
CTC2_L_00061020-02
1 58191U 26172VC  26070.40842593  .00000000  00000+0  00000-0 0  9991
2 58191  50.0000 228.0000 0000000   0.0000 318.0000 15.38683946    19
CTC2_L_00061020-03
1 58192U 23516YX  26070.40842593  .00000000  00000+0  00000-0 0  9991
2 58192  50.0000 228.0000 0000000   0.0000  48.0000 15.38683946    10
CTC2_L_00061020-04
1 58193U 23894XR  26070.40842593  .00000000  00000+0  00000-0 0  9991
2 58193  50.0000 228.0000 0000000   0.0000 138.0000 15.38683946    11
CTC2_L_00061021-01
1 58194U 23707DC  26070.40842593  .00000000  00000+0  00000-0 0  9995
2 58194  50.0000 240.0000 0000000   0.0000 240.0000 15.38683946    10
CTC2_L_00061021-02
1 58195U 25085TD  26070.40842593  .00000000  00000+0  00000-0 0  9997
2 58195  50.0000 240.0000 0000000   0.0000 330.0000 15.38683946    11
CTC2_L_00061021-03
1 58196U 24284IF  26070.40842593  .00000000  00000+0  00000-0 0  9998
2 58196  50.0000 240.0000 0000000   0.0000  60.0000 15.38683946    12
CTC2_L_00061021-04
1 58197U 22813IB  26070.40842593  .00000000  00000+0  00000-0 0  9995
2 58197  50.0000 240.0000 0000000   0.0000 150.0000 15.38683946    13
CTC2_L_00061022-01
1 58198U 24132E   26070.40842593  .00000000  00000+0  00000-0 0  9992
2 58198  50.0000 252.0000 0000000   0.0000 252.0000 15.38683946    10
CTC2_L_00061022-02
1 58199U 24361VY  26070.40842593  .00000000  00000+0  00000-0 0  9997
2 58199  50.0000 252.0000 0000000   0.0000 342.0000 15.38683946    11
CTC2_L_00061022-03
1 58200U 24021OZ  26070.40842593  .00000000  00000+0  00000-0 0  9993
2 58200  50.0000 252.0000 0000000   0.0000  72.0000 15.38683946    14
CTC2_L_00061022-04
1 58201U 26023FW  26070.40842593  .00000000  00000+0  00000-0 0  9998
2 58201  50.0000 252.0000 0000000   0.0000 162.0000 15.38683946    15
CTC2_L_00061023-01
1 58202U 26962KC  26070.40842593  .00000000  00000+0  00000-0 0  9991
2 58202  50.0000 264.0000 0000000   0.0000 264.0000 15.38683946    12
CTC2_L_00061023-02
1 58203U 24929TI  26070.40842593  .00000000  00000+0  00000-0 0  9993
2 58203  50.0000 264.0000 0000000   0.0000 354.0000 15.38683946    13
CTC2_L_00061023-03
1 58204U 25471XU  26070.40842593  .00000000  00000+0  00000-0 0  9997
2 58204  50.0000 264.0000 0000000   0.0000  84.0000 15.38683946    14
CTC2_L_00061023-04
1 58205U 24757CY  26070.40842593  .00000000  00000+0  00000-0 0  9994
2 58205  50.0000 264.0000 0000000   0.0000 174.0000 15.38683946    15
CTC2_L_00061024-01
1 58206U 24219S   26070.40842593  .00000000  00000+0  00000-0 0  9998
2 58206  50.0000 276.0000 0000000   0.0000 276.0000 15.38683946    12
CTC2_L_00061024-02
1 58207U 23116PN  26070.40842593  .00000000  00000+0  00000-0 0  9994
2 58207  50.0000 276.0000 0000000   0.0000   6.0000 15.38683946    14
CTC2_L_00061024-03
1 58208U 23666BD  26070.40842593  .00000000  00000+0  00000-0 0  9995
2 58208  50.0000 276.0000 0000000   0.0000  96.0000 15.38683946    14
CTC2_L_00061024-04
1 58209U 25971TC  26070.40842593  .00000000  00000+0  00000-0 0  9997
2 58209  50.0000 276.0000 0000000   0.0000 186.0000 15.38683946    15
CTC2_L_00061025-01
1 58210U 23571ZA  26070.40842593  .00000000  00000+0  00000-0 0  9993
2 58210  50.0000 288.0000 0000000   0.0000 288.0000 15.38683946    13
CTC2_L_00061025-02
1 58211U 24770QK  26070.40842593  .00000000  00000+0  00000-0 0  9996
2 58211  50.0000 288.0000 0000000   0.0000  18.0000 15.38683946    15
CTC2_L_00061025-03
1 58212U 22445IM  26070.40842593  .00000000  00000+0  00000-0 0  9994
2 58212  50.0000 288.0000 0000000   0.0000 108.0000 15.38683946    16
CTC2_L_00061025-04
1 58213U 25742CR  26070.40842593  .00000000  00000+0  00000-0 0  9998
2 58213  50.0000 288.0000 0000000   0.0000 198.0000 15.38683946    16
CTC2_L_00061026-01
1 58214U 25572R   26070.40842593  .00000000  00000+0  00000-0 0  9990
2 58214  50.0000 300.0000 0000000   0.0000 300.0000 15.38683946    17
CTC2_L_00061026-02
1 58215U 23771KY  26070.40842593  .00000000  00000+0  00000-0 0  9990
2 58215  50.0000 300.0000 0000000   0.0000  30.0000 15.38683946    18
CTC2_L_00061026-03
1 58216U 22822ZB  26070.40842593  .00000000  00000+0  00000-0 0  9997
2 58216  50.0000 300.0000 0000000   0.0000 120.0000 15.38683946    19
CTC2_L_00061026-04
1 58217U 26182W   26070.40842593  .00000000  00000+0  00000-0 0  9991
2 58217  50.0000 300.0000 0000000   0.0000 210.0000 15.38683946    10
CTC2_L_00061027-01
1 58218U 26146YK  26070.40842593  .00000000  00000+0  00000-0 0  9992
2 58218  50.0000 312.0000 0000000   0.0000 312.0000 15.38683946    17
CTC2_L_00061027-02
1 58219U 26511EZ  26070.40842593  .00000000  00000+0  00000-0 0  9999
2 58219  50.0000 312.0000 0000000   0.0000  42.0000 15.38683946    18
CTC2_L_00061027-03
1 58220U 22112DZ  26070.40842593  .00000000  00000+0  00000-0 0  9994
2 58220  50.0000 312.0000 0000000   0.0000 132.0000 15.38683946    10
CTC2_L_00061027-04
1 58221U 24484U   26070.40842593  .00000000  00000+0  00000-0 0  9999
2 58221  50.0000 312.0000 0000000   0.0000 222.0000 15.38683946    11
CTC2_L_00061028-01
1 58222U 23636GH  26070.40842593  .00000000  00000+0  00000-0 0  9998
2 58222  50.0000 324.0000 0000000   0.0000 324.0000 15.38683946    18
CTC2_L_00061028-02
1 58223U 26494EM  26070.40842593  .00000000  00000+0  00000-0 0  9994
2 58223  50.0000 324.0000 0000000   0.0000  54.0000 15.38683946    19
CTC2_L_00061028-03
1 58224U 26101GB  26070.40842593  .00000000  00000+0  00000-0 0  9990
2 58224  50.0000 324.0000 0000000   0.0000 144.0000 15.38683946    10
CTC2_L_00061028-04
1 58225U 23702OH  26070.40842593  .00000000  00000+0  00000-0 0  9995
2 58225  50.0000 324.0000 0000000   0.0000 234.0000 15.38683946    11
CTC2_L_00061029-01
1 58226U 25334LS  26070.40842593  .00000000  00000+0  00000-0 0  9999
2 58226  50.0000 336.0000 0000000   0.0000 336.0000 15.38683946    18
CTC2_L_00061029-02
1 58227U 24433PC  26070.40842593  .00000000  00000+0  00000-0 0  9999
2 58227  50.0000 336.0000 0000000   0.0000  66.0000 15.38683946    19
CTC2_L_00061029-03
1 58228U 22025YR  26070.40842593  .00000000  00000+0  00000-0 0  9995
2 58228  50.0000 336.0000 0000000   0.0000 156.0000 15.38683946    10
CTC2_L_00061029-04
1 58229U 22664XU  26070.40842593  .00000000  00000+0  00000-0 0  9995
2 58229  50.0000 336.0000 0000000   0.0000 246.0000 15.38683946    11
CTC2_L_00061030-01
1 58230U 25501XI  26070.40842593  .00000000  00000+0  00000-0 0  9990
2 58230  50.0000 348.0000 0000000   0.0000 348.0000 15.38683946    19
CTC2_L_00061030-02
1 58231U 25577AJ  26070.40842593  .00000000  00000+0  00000-0 0  9994
2 58231  50.0000 348.0000 0000000   0.0000  78.0000 15.38683946    10
CTC2_L_00061030-03
1 58232U 24772OV  26070.40842593  .00000000  00000+0  00000-0 0  9991
2 58232  50.0000 348.0000 0000000   0.0000 168.0000 15.38683946    11
CTC2_L_00061030-04
1 58233U 26178CI  26070.40842593  .00000000  00000+0  00000-0 0  9994
2 58233  50.0000 348.0000 0000000   0.0000 258.0000 15.38683946    12
